[{"OBJECT_NAME":"ONEWEB-0250","OBJECT_ID":"2021-060B","EPOCH":"2025-09-30T02:13:49.164960","MEAN_MOTION":13.25814091,"ECCENTRICITY":0.00025763,"INCLINATION":87.8965,"RA_OF_ASC_NODE":279.2161,"ARG_OF_PERICENTER":108.8001,"MEAN_ANOMALY":251.3415,"EPHEMERIS_TYPE":0,"CLASSIFICATION_TYPE":"U","NORAD_CAT_ID":48968,"ELEMENT_SET_NO":999,"REV_AT_EPOCH":20575,"BSTAR":0.00011969577,"MEAN_MOTION_DOT":6.6e-7,"MEAN_MOTION_DDOT":0},{"OBJECT_NAME":"ONEWEB-0252","OBJECT_ID":"2021-060D","EPOCH":"2025-09-29T13:35:17.771424","MEAN_MOTION":13.1659305,"ECCENTRICITY":0.00017375,"INCLINATION":87.8968,"RA_OF_ASC_NODE":280.7073,"ARG_OF_PERICENTER":78.9349,"MEAN_ANOMALY":281.1977,"EPHEMERIS_TYPE":0,"CLASSIFICATION_TYPE":"U","NORAD_CAT_ID":48970,"ELEMENT_SET_NO":999,"REV_AT_EPOCH":20536,"BSTAR":0.00033834404,"MEAN_MOTION_DOT":1.42e-6,"MEAN_MOTION_DDOT":0},{"OBJECT_NAME":"ONEWEB-0253","OBJECT_ID":"2021-060E","EPOCH":"2025-09-30T02:05:23.356896","MEAN_MOTION":13.16593587,"ECCENTRICITY":0.00016688,"INCLINATION":87.8967,"RA_OF_ASC_NODE":280.6069,"ARG_OF_PERICENTER":95.0832,"MEAN_ANOMALY":265.049,"EPHEMERIS_TYPE":0,"CLASSIFICATION_TYPE":"U","NORAD_CAT_ID":48971,"ELEMENT_SET_NO":999,"REV_AT_EPOCH":20536,"BSTAR":0.00034348687,"MEAN_MOTION_DOT":1.44e-6,"MEAN_MOTION_DDOT":0},{"OBJECT_NAME":"ONEWEB-0254","OBJECT_ID":"2021-060F","EPOCH":"2025-09-30T00:29:38.922432","MEAN_MOTION":13.16595046,"ECCENTRICITY":0.00017203,"INCLINATION":87.8971,"RA_OF_ASC_NODE":280.6078,"ARG_OF_PERICENTER":103.2065,"MEAN_ANOMALY":256.9258,"EPHEMERIS_TYPE":0,"CLASSIFICATION_TYPE":"U","NORAD_CAT_ID":48972,"ELEMENT_SET_NO":999,"REV_AT_EPOCH":20535,"BSTAR":0.00025309111,"MEAN_MOTION_DOT":1.1e-6,"MEAN_MOTION_DDOT":0},{"OBJECT_NAME":"ONEWEB-0255","OBJECT_ID":"2021-060G","EPOCH":"2025-09-30T06:52:39.916704","MEAN_MOTION":13.16592754,"ECCENTRICITY":0.00017509,"INCLINATION":87.8959,"RA_OF_ASC_NODE":280.5782,"ARG_OF_PERICENTER":98.3502,"MEAN_ANOMALY":261.7827,"EPHEMERIS_TYPE":0,"CLASSIFICATION_TYPE":"U","NORAD_CAT_ID":48973,"ELEMENT_SET_NO":999,"REV_AT_EPOCH":20546,"BSTAR":6.2375772e-5,"MEAN_MOTION_DOT":3.7e-7,"MEAN_MOTION_DDOT":0},{"OBJECT_NAME":"ONEWEB-0256","OBJECT_ID":"2021-060H","EPOCH":"2025-09-30T02:01:58.273536","MEAN_MOTION":13.1659278,"ECCENTRICITY":0.00018353,"INCLINATION":87.8961,"RA_OF_ASC_NODE":280.6298,"ARG_OF_PERICENTER":85.9443,"MEAN_ANOMALY":274.1898,"EPHEMERIS_TYPE":0,"CLASSIFICATION_TYPE":"U","NORAD_CAT_ID":48974,"ELEMENT_SET_NO":999,"REV_AT_EPOCH":20540,"BSTAR":6.7632209e-5,"MEAN_MOTION_DOT":3.9e-7,"MEAN_MOTION_DDOT":0},{"OBJECT_NAME":"ONEWEB-0257","OBJECT_ID":"2021-060J","EPOCH":"2025-09-30T06:27:34.459776","MEAN_MOTION":13.16594802,"ECCENTRICITY":0.00016599,"INCLINATION":87.897,"RA_OF_ASC_NODE":280.5639,"ARG_OF_PERICENTER":93.2631,"MEAN_ANOMALY":266.8689,"EPHEMERIS_TYPE":0,"CLASSIFICATION_TYPE":"U","NORAD_CAT_ID":48975,"ELEMENT_SET_NO":999,"REV_AT_EPOCH":20538,"BSTAR":-0.00039153787,"MEAN_MOTION_DOT":-1.37e-6,"MEAN_MOTION_DDOT":0},{"OBJECT_NAME":"ONEWEB-0258","OBJECT_ID":"2021-060K","EPOCH":"2025-09-30T06:29:52.240992","MEAN_MOTION":13.16593119,"ECCENTRICITY":0.00019412,"INCLINATION":87.8962,"RA_OF_ASC_NODE":280.5854,"ARG_OF_PERICENTER":92.5888,"MEAN_ANOMALY":267.5466,"EPHEMERIS_TYPE":0,"CLASSIFICATION_TYPE":"U","NORAD_CAT_ID":48976,"ELEMENT_SET_NO":999,"REV_AT_EPOCH":20539,"BSTAR":6.0974926e-5,"MEAN_MOTION_DOT":3.6e-7,"MEAN_MOTION_DDOT":0},{"OBJECT_NAME":"ONEWEB-0259","OBJECT_ID":"2021-060L","EPOCH":"2025-09-30T06:20:44.090016","MEAN_MOTION":13.16595029,"ECCENTRICITY":0.00017773,"INCLINATION":87.8972,"RA_OF_ASC_NODE":280.5735,"ARG_OF_PERICENTER":96.6828,"MEAN_ANOMALY":263.4505,"EPHEMERIS_TYPE":0,"CLASSIFICATION_TYPE":"U","NORAD_CAT_ID":48977,"ELEMENT_SET_NO":999,"REV_AT_EPOCH":20542,"BSTAR":-0.00032502521,"MEAN_MOTION_DOT":-1.11e-6,"MEAN_MOTION_DDOT":0},{"OBJECT_NAME":"ONEWEB-0260","OBJECT_ID":"2021-060M","EPOCH":"2025-09-29T22:50:27.338784","MEAN_MOTION":13.16592475,"ECCENTRICITY":0.0001615,"INCLINATION":87.8962,"RA_OF_ASC_NODE":280.6579,"ARG_OF_PERICENTER":74.8706,"MEAN_ANOMALY":285.2603,"EPHEMERIS_TYPE":0,"CLASSIFICATION_TYPE":"U","NORAD_CAT_ID":48978,"ELEMENT_SET_NO":999,"REV_AT_EPOCH":20536,"BSTAR":5.4476e-5,"MEAN_MOTION_DOT":3.4e-7,"MEAN_MOTION_DDOT":0},{"OBJECT_NAME":"ONEWEB-0261","OBJECT_ID":"2021-060N","EPOCH":"2025-09-30T07:14:20.227200","MEAN_MOTION":13.16594825,"ECCENTRICITY":0.00014601,"INCLINATION":87.8958,"RA_OF_ASC_NODE":280.59,"ARG_OF_PERICENTER":97.6975,"MEAN_ANOMALY":262.4322,"EPHEMERIS_TYPE":0,"CLASSIFICATION_TYPE":"U","NORAD_CAT_ID":48979,"ELEMENT_SET_NO":999,"REV_AT_EPOCH":20546,"BSTAR":0.00040341007,"MEAN_MOTION_DOT":1.67e-6,"MEAN_MOTION_DDOT":0},{"OBJECT_NAME":"ONEWEB-0262","OBJECT_ID":"2021-060P","EPOCH":"2025-09-30T06:45:49.553856","MEAN_MOTION":13.16593018,"ECCENTRICITY":0.00019406,"INCLINATION":87.8972,"RA_OF_ASC_NODE":280.5593,"ARG_OF_PERICENTER":101.1297,"MEAN_ANOMALY":259.0052,"EPHEMERIS_TYPE":0,"CLASSIFICATION_TYPE":"U","NORAD_CAT_ID":48980,"ELEMENT_SET_NO":999,"REV_AT_EPOCH":20542,"BSTAR":0.00018120332,"MEAN_MOTION_DOT":8.2e-7,"MEAN_MOTION_DDOT":0},{"OBJECT_NAME":"ONEWEB-0263","OBJECT_ID":"2021-060Q","EPOCH":"2025-09-30T02:03:07.263072","MEAN_MOTION":13.16595252,"ECCENTRICITY":0.00015678,"INCLINATION":87.896,"RA_OF_ASC_NODE":280.6194,"ARG_OF_PERICENTER":103.9386,"MEAN_ANOMALY":256.1919,"EPHEMERIS_TYPE":0,"CLASSIFICATION_TYPE":"U","NORAD_CAT_ID":48981,"ELEMENT_SET_NO":999,"REV_AT_EPOCH":20536,"BSTAR":0.00028936335,"MEAN_MOTION_DOT":1.23e-6,"MEAN_MOTION_DDOT":0},{"OBJECT_NAME":"ONEWEB-0264","OBJECT_ID":"2021-060R","EPOCH":"2025-09-30T01:07:16.880160","MEAN_MOTION":13.16593882,"ECCENTRICITY":0.00016038,"INCLINATION":87.8959,"RA_OF_ASC_NODE":280.6319,"ARG_OF_PERICENTER":87.6757,"MEAN_ANOMALY":272.4557,"EPHEMERIS_TYPE":0,"CLASSIFICATION_TYPE":"U","NORAD_CAT_ID":48982,"ELEMENT_SET_NO":999,"REV_AT_EPOCH":20536,"BSTAR":-0.00012064077,"MEAN_MOTION_DOT":-3.3e-7,"MEAN_MOTION_DDOT":0},{"OBJECT_NAME":"ONEWEB-0266","OBJECT_ID":"2021-060T","EPOCH":"2025-09-30T07:06:20.306304","MEAN_MOTION":13.16594206,"ECCENTRICITY":0.00019885,"INCLINATION":87.8969,"RA_OF_ASC_NODE":280.5599,"ARG_OF_PERICENTER":92.5836,"MEAN_ANOMALY":267.5522,"EPHEMERIS_TYPE":0,"CLASSIFICATION_TYPE":"U","NORAD_CAT_ID":48984,"ELEMENT_SET_NO":999,"REV_AT_EPOCH":20538,"BSTAR":-0.00023609698,"MEAN_MOTION_DOT":-7.7e-7,"MEAN_MOTION_DDOT":0},{"OBJECT_NAME":"ONEWEB-0267","OBJECT_ID":"2021-060U","EPOCH":"2025-09-29T13:07:57.158976","MEAN_MOTION":13.16595349,"ECCENTRICITY":0.00015781,"INCLINATION":87.8964,"RA_OF_ASC_NODE":280.7127,"ARG_OF_PERICENTER":94.4679,"MEAN_ANOMALY":265.6632,"EPHEMERIS_TYPE":0,"CLASSIFICATION_TYPE":"U","NORAD_CAT_ID":48985,"ELEMENT_SET_NO":999,"REV_AT_EPOCH":20529,"BSTAR":0.00028249923,"MEAN_MOTION_DOT":1.21e-6,"MEAN_MOTION_DDOT":0},{"OBJECT_NAME":"ONEWEB-0268","OBJECT_ID":"2021-060V","EPOCH":"2025-09-29T23:18:56.960640","MEAN_MOTION":13.16592465,"ECCENTRICITY":0.0001799,"INCLINATION":87.8968,"RA_OF_ASC_NODE":280.6337,"ARG_OF_PERICENTER":88.6436,"MEAN_ANOMALY":271.4901,"EPHEMERIS_TYPE":0,"CLASSIFICATION_TYPE":"U","NORAD_CAT_ID":48986,"ELEMENT_SET_NO":999,"REV_AT_EPOCH":20561,"BSTAR":-9.737e-5,"MEAN_MOTION_DOT":-2.4e-7,"MEAN_MOTION_DDOT":0}]
