ONEWEB-0250             
1 48968U 21060B   25273.09293015  .00000066  00000+0  11970-3 0  9994
2 48968  87.8965 279.2161 0002576 108.8001 251.3415 13.25814091205750
ONEWEB-0252             
1 48970U 21060D   25272.56617791  .00000142  00000+0  33834-3 0  9997
2 48970  87.8968 280.7073 0001737  78.9349 281.1977 13.16593050205365
ONEWEB-0253             
1 48971U 21060E   25273.08707589  .00000144  00000+0  34349-3 0  9995
2 48971  87.8967 280.6069 0001668  95.0832 265.0490 13.16593587205365
ONEWEB-0254             
1 48972U 21060F   25273.02058938  .00000110  00000+0  25309-3 0  9996
2 48972  87.8971 280.6078 0001720 103.2065 256.9258 13.16595046205352
ONEWEB-0255             
1 48973U 21060G   25273.28657311  .00000037  00000+0  62376-4 0  9999
2 48973  87.8959 280.5782 0001750  98.3502 261.7827 13.16592754205464
ONEWEB-0256             
1 48974U 21060H   25273.08470224  .00000039  00000+0  67632-4 0  9996
2 48974  87.8961 280.6298 0001835  85.9443 274.1898 13.16592780205400
ONEWEB-0257             
1 48975U 21060J   25273.26914884 -.00000137  00000+0 -39154-3 0  9990
2 48975  87.8970 280.5639 0001659  93.2631 266.8689 13.16594802205384
ONEWEB-0258             
1 48976U 21060K   25273.27074353  .00000036  00000+0  60975-4 0  9992
2 48976  87.8962 280.5854 0001941  92.5888 267.5466 13.16593119205397
ONEWEB-0259             
1 48977U 21060L   25273.26439919 -.00000111  00000+0 -32503-3 0  9996
2 48977  87.8972 280.5735 0001777  96.6828 263.4505 13.16595029205428
ONEWEB-0260             
1 48978U 21060M   25272.95170531  .00000034  00000+0  54476-4 0  9990
2 48978  87.8962 280.6579 0001615  74.8706 285.2603 13.16592475205365
ONEWEB-0261             
1 48979U 21060N   25273.30162300  .00000167  00000+0  40341-3 0  9998
2 48979  87.8958 280.5900 0001460  97.6975 262.4322 13.16594825205464
ONEWEB-0262             
1 48980U 21060P   25273.28182354  .00000082  00000+0  18120-3 0  9994
2 48980  87.8972 280.5593 0001940 101.1297 259.0052 13.16593018205422
ONEWEB-0263             
1 48981U 21060Q   25273.08550073  .00000123  00000+0  28936-3 0  9992
2 48981  87.8960 280.6194 0001567 103.9386 256.1919 13.16595252205367
ONEWEB-0264             
1 48982U 21060R   25273.04672315 -.00000033  00000+0 -12064-3 0  9990
2 48982  87.8959 280.6319 0001603  87.6757 272.4557 13.16593882205362
ONEWEB-0266             
1 48984U 21060T   25273.29606836 -.00000077  00000+0 -23610-3 0  9991
2 48984  87.8969 280.5599 0001988  92.5836 267.5522 13.16594206205383
ONEWEB-0267             
1 48985U 21060U   25272.54718934  .00000121  00000+0  28250-3 0  9995
2 48985  87.8964 280.7127 0001578  94.4679 265.6632 13.16595349205299
ONEWEB-0268             
1 48986U 21060V   25272.97149260 -.00000024  00000+0 -97370-4 0  9997
2 48986  87.8968 280.6337 0001799  88.6436 271.4901 13.16592465205613
